[
    [
        "GPS BIII-10 (PRN 13)",
        "1 68791U 26087A   26135.51086650  .00000055  00000+0  00000+0 0  9990",
        "2 68791  54.9646 209.0805 0004564 270.1416  92.8865  2.00570335   183"
    ]
]